NORAD_CAT_ID,OBJECT_NAME,OBJECT_TYPE,EPOCH,MEAN_MOTION,ECCENTRICITY,INCLINATION,RA_OF_ASC_NODE,ARG_OF_PERICENTER,MEAN_ANOMALY,BSTAR,MEAN_MOTION_DOT,MEAN_MOTION_DDOT,TLE_LINE0,TLE_LINE1,TLE_LINE2,SEMIMAJOR_AXIS,PERIOD,APOGEE,PERIGEE,DECAYED
52612.0,STARLINK-4002,PAYLOAD,2022-08-28 14:00:01,15.08818696,0.0001638,53.2191,306.1391,44.0452,175.1511,0.0019222,0.00030418,0.0,0 STARLINK-4002,1 52612U 22052Q   22240.58334491  .00030418  00000-0  19222-2 0  9998,2 52612  53.2191 306.1391 0001638  44.0452 175.1511 15.08818696  1306,6917.946,95.439,540.944,538.677,0.0
52612.0,STARLINK-4002,PAYLOAD,2022-08-28 22:00:00,15.08840472,0.0001465,53.2189,304.6413,47.8529,182.9254,-0.0006563,-0.00010718,0.0,0 STARLINK-4002,1 52612U 22052Q   22240.91667824 -.00010718  00000-0 -65630-3 0  9992,2 52612  53.2189 304.6413 0001465  47.8529 182.9254 15.08840472  1302,6917.879,95.438,540.757,538.73,0.0
52612.0,STARLINK-4002,PAYLOAD,2022-08-29 04:00:00,15.08843303,0.0001465999999999,53.2189,303.5186,53.717,95.7503,-0.00026501,-4.504e-05,0.0,0 STARLINK-4002,1 52612U 22052Q   22241.16667824 -.00004504  00000-0 -26501-3 0  9990,2 52612  53.2189 303.5186 0001466  53.7170  95.7503 15.08843303 16700,6917.87,95.437,540.749,538.721,0.0
52612.0,STARLINK-4002,PAYLOAD,2022-08-29 14:00:01,15.08796781,0.0001710999999999,53.2185,301.6503,46.9373,207.0322,0.002589,0.00041108,0.0,0 STARLINK-4002,1 52612U 22052Q   22241.58334491  .00041108  00000-0  25890-2 0  9995,2 52612  53.2185 301.6503 0001711  46.9373 207.0322 15.08796781  1304,6918.012,95.44,541.061,538.694,0.0
52612.0,STARLINK-4002,PAYLOAD,2022-08-29 20:00:01,15.08835513,0.0001592,53.2181,300.5269,49.5896,123.0439,-0.0019061,-0.00030492,0.0,0 STARLINK-4002,1 52612U 22052Q   22241.83334491 -.00030492  00000-0 -19061-2 0  9992,2 52612  53.2181 300.5269 0001592  49.5896 123.0439 15.08835513 16807,6917.894,95.438,540.86,538.658,0.0
52612.0,STARLINK-4002,PAYLOAD,2022-08-29 22:00:00,15.08820676,0.0001537,53.2183,300.1523,51.1901,214.3423,-0.00011989,-2.194e-05,0.0,0 STARLINK-4002,1 52612U 22052Q   22241.91667824 -.00002194  00000-0 -11989-3 0  9990,2 52612  53.2183 300.1523 0001537  51.1901 214.3423 15.08820676  1303,6917.939,95.439,540.868,538.741,0.0
52612.0,STARLINK-4002,PAYLOAD,2022-08-30 12:00:00,15.08817667,0.0001706,53.2179,297.5353,48.7687,147.0182,0.00080811,0.00012589,0.0,0 STARLINK-4002,1 52612U 22052Q   22242.50001157  .00012589  00000-0  80811-3 0  9994,2 52612  53.2179 297.5353 0001706  48.7687 147.0182 15.08817667 16901,6917.949000000001,95.439,540.994,538.633,0.0
52612.0,STARLINK-4002,PAYLOAD,2022-08-30 14:00:01,15.08805204,0.000171,53.2178,297.1613,47.6331,241.0505,0.0026678,0.00042385,0.0,0 STARLINK-4002,1 52612U 22052Q   22242.58334491  .00042385  00000-0  26678-2 0  9999,2 52612  53.2178 297.1613 0001710  47.6331 241.0505 15.08805204  1300,6917.986999999999,95.44,541.035,538.669,0.0
52612.0,STARLINK-4002,PAYLOAD,2022-08-30 22:00:00,15.08825052,0.000156,53.2176,295.6633,52.152,248.1089,0.00038128,5.783e-05,0.0,0 STARLINK-4002,1 52612U 22052Q   22242.91667824  .00005783  00000-0  38128-3 0  9990,2 52612  53.2176 295.6633 0001560  52.1520 248.1089 15.08825052  1305,6917.926,95.439,540.87,538.712,0.0
52612.0,STARLINK-4002,PAYLOAD,2022-08-31 14:00:01,15.08815841,0.0001745,53.2173,292.6721,47.4991,275.9382,0.0027633,0.00043935,0.0,0 STARLINK-4002,1 52612U 22052Q   22243.58334491  .00043935  00000-0  27633-2 0  9994,2 52612  53.2173 292.6721 0001745  47.4991 275.9382 15.08815841  1300,6917.954000000002,95.439,541.026,538.612,0.0
52612.0,STARLINK-4002,PAYLOAD,2022-08-31 20:00:01,15.08853506,0.0001644,53.2172,291.5484,50.0869,192.0363,-0.0017399,-0.00027882,0.0,0 STARLINK-4002,1 52612U 22052Q   22243.83334491 -.00027882  00000-0 -17399-2 0  9995,2 52612  53.2172 291.5484 0001644  50.0869 192.0363 15.08853506 17119,6917.839,95.437,540.841,538.567,0.0
52612.0,STARLINK-4002,PAYLOAD,2022-08-31 22:00:00,15.08831439,0.0001608,53.2173,291.1740000000001,52.1103,282.92,0.0010242,0.00016046,0.0,0 STARLINK-4002,1 52612U 22052Q   22243.91667824  .00016046  00000-0  10242-2 0  9991,2 52612  53.2173 291.1740 0001608  52.1103 282.9200 15.08831439  1309,6917.906999999997,95.438,540.884,538.659,0.0
52612.0,STARLINK-4002,PAYLOAD,2022-09-01 12:00:00,15.0883175,0.0001833,53.2174,288.5568,48.1938,217.135,0.0018045,0.00028541,0.0,0 STARLINK-4002,1 52612U 22052Q   22244.50001157  .00028541  00000-0  18045-2 0  9990,2 52612  53.2174 288.5568 0001833  48.1938 217.1350 15.08831750 17218,6917.906,95.438,541.039,538.503,0.0
52612.0,STARLINK-4002,PAYLOAD,2022-09-01 14:00:01,15.08828259,0.0001810999999999,53.2172,288.1826,46.717,311.5757,0.0028081,0.00044672,0.0,0 STARLINK-4002,1 52612U 22052Q   22244.58335648  .00044672  00000-0  28081-2 0  9997,2 52612  53.2172 288.1826 0001811  46.7170 311.5757 15.08828259  1300,6917.916,95.438,541.034,538.528,0.0
52612.0,STARLINK-4002,PAYLOAD,2022-09-01 22:00:00,15.08838477,0.0001664,53.2174,286.6845,51.3496,318.4874,0.0015948,0.00025183,0.0,0 STARLINK-4002,1 52612U 22052Q   22244.91667824  .00025183  00000-0  15948-2 0  9992,2 52612  53.2174 286.6845 0001664  51.3496 318.4874 15.08838477  1304,6917.885,95.438,540.901,538.599,0.0
52612.0,STARLINK-4002,PAYLOAD,2022-09-02 04:00:00,15.08874164,0.0001678,53.2175,285.5621,53.5945,234.9356,-0.0024593,-0.00039252,0.0,0 STARLINK-4002,1 52612U 22052Q   22245.16667824 -.00039252  00000-0 -24593-2 0  9990,2 52612  53.2175 285.5621 0001678  53.5945 234.9356 15.08874164 17311,6917.776,95.435,540.802,538.48,0.0
52612.0,STARLINK-4002,PAYLOAD,2022-09-02 14:00:01,15.0881316,0.0001815,53.2176,283.6933,43.4184,349.6325,0.0025835999999999,0.0004104,0.0,0 STARLINK-4002,1 52612U 22052Q   22245.58334491  .00041040  00000-0  25836-2 0  9994,2 52612  53.2176 283.6933 0001815  43.4184 349.6325 15.08813160  1304,6917.962,95.439,541.0830000000002,538.572,0.0
52612.0,STARLINK-4002,PAYLOAD,2022-09-02 22:00:01,15.088181699999998,0.0001659,53.2179,282.195,48.6412,356.0616,0.0019993,0.00031655,0.0,0 STARLINK-4002,1 52612U 22052Q   22245.91668981  .00031655  00000-0  19993-2 0  9993,2 52612  53.2179 282.1950 0001659  48.6412 356.0616 15.08818170  1308,6917.946999999999,95.439,540.96,538.664,0.0
52612.0,STARLINK-4002,PAYLOAD,2022-09-03 04:00:00,15.08849843,0.0001719,53.2181,281.073,50.9359,272.3834,-0.0004315,-7.151e-05,0.0,0 STARLINK-4002,1 52612U 22052Q   22246.16667824 -.00007151  00000-0 -43150-3 0  9995,2 52612  53.2181 281.0730 0001719  50.9359 272.3834 15.08849843 17465,6917.85,95.437,540.904,538.526,0.0
52612.0,STARLINK-4002,PAYLOAD,2022-09-03 14:00:01,15.08828833,0.0001901,53.218,279.2041,43.3831,24.4407,0.0023471,0.00037253,0.0,0 STARLINK-4002,1 52612U 22052Q   22246.58334491  .00037253  00000-0  23471-2 0  9999,2 52612  53.2180 279.2041 0001901  43.3831  24.4407 15.08828833  1306,6917.915,95.438,541.095,538.464,0.0
52612.0,STARLINK-4002,PAYLOAD,2022-09-03 22:00:00,15.088381900000002,0.0001754999999999,53.2183,277.706,49.4416,29.9891,0.0010459,0.00016396,0.0,0 STARLINK-4002,1 52612U 22052Q   22246.91667824  .00016396  00000-0  10459-2 0  9992,2 52612  53.2183 277.7060 0001755  49.4416  29.9891 15.08838190  1300,6917.886,95.438,540.965,538.5369999999998,0.0
52612.0,STARLINK-4002,PAYLOAD,2022-09-04 12:00:00,15.08813403,0.0002048,53.2184,275.0893,47.8067,321.9313,0.0027852,0.00044285,0.0,0 STARLINK-4002,1 52612U 22052Q   22247.50001157  .00044285  00000-0  27852-2 0  9992,2 52612  53.2184 275.0893 0002048  47.8067 321.9313 15.08813403 17666,6917.962,95.439,541.243,538.41,0.0
52612.0,STARLINK-4002,PAYLOAD,2022-09-04 14:00:01,15.08823655,0.0002035,53.2182,274.715,46.3967,56.2966,0.0020402999999999,0.00032318,0.0,0 STARLINK-4002,1 52612U 22052Q   22247.58335648  .00032318  00000-0  20403-2 0  9994,2 52612  53.2182 274.7150 0002035  46.3967  56.2966 15.08823655  1301,6917.93,95.439,541.203,538.388,0.0
52612.0,STARLINK-4002,PAYLOAD,2022-09-04 20:00:01,15.08840906,0.0001878,53.2184,273.5915,51.3063,330.021,0.00019727,2.853e-05,0.0,0 STARLINK-4002,1 52612U 22052Q   22247.83334491  .00002853  00000-0  19727-3 0  9996,2 52612  53.2184 273.5915 0001878  51.3063 330.0210 15.08840906  1309,6917.878000000002,95.437,541.0419999999998,538.443,0.0
52612.0,STARLINK-4002,PAYLOAD,2022-09-05 04:00:00,15.08868344,0.0001846,53.2185,272.0954,52.1612,340.76199999999994,-0.0032808,-0.00052165,0.0,0 STARLINK-4002,1 52612U 22052Q   22248.16667824 -.00052165  00000-0 -32808-2 0  9999,2 52612  53.2185 272.0954 0001846  52.1612 340.7620 15.08868344 17767,6917.794,95.436,540.936,538.382,0.0
52612.0,STARLINK-4002,PAYLOAD,2022-09-05 14:00:01,15.08825609,0.0001952,53.2179,270.2262,45.01,92.4124,0.0016047999999999,0.00025335,0.0,0 STARLINK-4002,1 52612U 22052Q   22248.58334491  .00025335  00000-0  16048-2 0  9991,2 52612  53.2179 270.2262 0001952  45.0100  92.4124 15.08825609  1303,6917.924,95.438,541.14,538.439,0.0
52612.0,STARLINK-4002,PAYLOAD,2022-09-05 20:00:01,15.08838791,0.0001751,53.2181,269.1026,49.4966,6.6157,-0.0017758,-0.00028438,0.0,0 STARLINK-4002,1 52612U 22052Q   22248.83334491 -.00028438  00000-0 -17758-2 0  9997,2 52612  53.2181 269.1026 0001751  49.4966   6.6157 15.08838791 17863,6917.884,95.438,540.96,538.538,0.0
52612.0,STARLINK-4002,PAYLOAD,2022-09-05 22:00:00,15.08821765,0.0001709,53.2179,268.7283,50.0572,98.9571,-3.846800000000001e-05,-9e-06,0.0,0 STARLINK-4002,1 52612U 22052Q   22248.91667824 -.00000900  00000-0 -38468-4 0  9992,2 52612  53.2179 268.7283 0001709  50.0572  98.9571 15.08821765  1303,6917.936,95.439,540.9830000000002,538.619,0.0
52612.0,STARLINK-4002,PAYLOAD,2022-09-06 12:00:00,15.08797197,0.0001879,53.2175,266.1119,44.5123,34.7595,0.002972,0.00047274,0.0,0 STARLINK-4002,1 52612U 22052Q   22249.50001157  .00047274  00000-0  29720-2 0  9991,2 52612  53.2175 266.1119 0001879  44.5123  34.7595 15.08797197 17961,6918.011,95.44,541.1759999999998,538.576,0.0
